FLOCK 4BE-27            
1 60513U 24149AX  26068.75339182  .00011439  00000+0  36576-3 0  9992
2 60513  97.3862 150.6783 0002732 305.8980  54.2008 15.32593322 86906
STARLINK-35040          
1 65480U 25195Y   26068.82246689  .00013282  00000+0  45988-3 0  9994
2 65480  53.1567 257.5646 0000885 109.9313 250.1783 15.30190873 29996
